{
"type": "FeatureCollection",
"name": "addresses",
"crs": { "type": "name", "properties": { "name": "urn:ogc:def:crs:OGC:1.3:CRS84" } },
"features": [
{ "type": "Feature", "properties": { "osm_id": 12184277705, "addr:housename": "Carpenter's Workshop", "addr:postcode": "TDCU 1ZZ", "entrance": "yes", "addr:city": "Edinburgh of the Seven Seas", "website": null }, "geometry": { "type": "Point", "coordinates": [ -12.3124036, -37.0659545 ] } },
{ "type": "Feature", "properties": { "osm_id": 12184277706, "addr:housename": "Head of Electrical and Plumbing", "addr:postcode": "TDCU 1ZZ", "entrance": "yes", "addr:city": "Edinburgh of the Seven Seas", "website": "https:\/\/tristandc.com\/infrastructure.php" }, "geometry": { "type": "Point", "coordinates": [ -12.3123584, -37.0659436 ] } },
{ "type": "Feature", "properties": { "osm_id": 12184277709, "addr:housename": "Head of Agriculture", "addr:postcode": "TDCU 1ZZ", "entrance": "yes", "addr:city": "Edinburgh of the Seven Seas", "website": "https:\/\/tristandc.com\/economyfarming.php" }, "geometry": { "type": "Point", "coordinates": [ -12.3122224, -37.0659117 ] } },
{ "type": "Feature", "properties": { "osm_id": 5339643346, "addr:housename": "Agricultural Workshop", "addr:postcode": "TDCU 1ZZ", "entrance": "yes", "addr:city": "Edinburgh of the Seven Seas", "website": null }, "geometry": { "type": "Point", "coordinates": [ -12.3121924, -37.0659051 ] } }
]
}
